{"type": "FeatureCollection", "features": [ {"type": "Feature", "properties": {"norad_id": 66911, "name": "1998-067XX", "group": "stations", "lat": -19.44571014398158, "lon": 74.01319431176395, "alt_km": 408.65291886873183, "timestamp": "2025-12-23T05:02:10.783430+00:00", "meta": {"OBJECT_NAME": "1998-067XX", "OBJECT_ID": "1998-067XX", "EPOCH": "2025-12-22T12:09:35.951904", "MEAN_MOTION": 15.53307333, "ECCENTRICITY": 0.00037259, "INCLINATION": 51.6305, "RA_OF_ASC_NODE": 93.7603, "ARG_OF_PERICENTER": 265.4438, "MEAN_ANOMALY": 94.6127, "EPHEMERIS_TYPE": 0, "CLASSIFICATION_TYPE": "U", "NORAD_CAT_ID": 66911, "ELEMENT_SET_NO": 999, "REV_AT_EPOCH": 312, "BSTAR": 0.0011547051, "MEAN_MOTION_DOT": 0.00074426, "MEAN_MOTION_DDOT": 0}, "tle": {"line1": "1 66911U 98067XX  25356.50666611  .00074426  00000+0  11547-2 0  9997", "line2": "2 66911  51.6305  93.7603 0003725 265.4438  94.6127 15.53307333  3120"}}, "geometry": {"type": "Point", "coordinates": [74.01319431176395, -19.44571014398158]}}, {"type": "Feature", "properties": {"norad_id": 66912, "name": "1998-067XY", "group": "stations", "lat": -51.57050512551498, "lon": 3.529655329872163, "alt_km": 412.51494023775103, "timestamp": "2025-12-23T05:02:10.783439+00:00", "meta": {"OBJECT_NAME": "1998-067XY", "OBJECT_ID": "1998-067XY", "EPOCH": "2025-12-22T13:57:42.061248", "MEAN_MOTION": 15.52056622, "ECCENTRICITY": 0.00039127, "INCLINATION": 51.6324, "RA_OF_ASC_NODE": 93.5129, "ARG_OF_PERICENTER": 278.0711, "MEAN_ANOMALY": 81.9835, "EPHEMERIS_TYPE": 0, "CLASSIFICATION_TYPE": "U", "NORAD_CAT_ID": 66912, "ELEMENT_SET_NO": 999, "REV_AT_EPOCH": 313, "BSTAR": 0.00086867978, "MEAN_MOTION_DOT": 0.0005325, "MEAN_MOTION_DDOT": 0}, "tle": {"line1": "1 66912U 98067XY  25356.58173682  .00053250  00000+0  86868-3 0  9998", "line2": "2 66912  51.6324  93.5129 0003912 278.0711  81.9835 15.52056622  3132"}}, "geometry": {"type": "Point", "coordinates": [3.529655329872163, -51.57050512551498]}}]}